start=new Date('2022-09-05T00:00:00.000Z').valueOf();
sats=[{"MEAN_ELEMENT_THEORY":"SGP4","PERIAPSIS":"392.387","CLASSIFICATION_TYPE":"U","SEMIMAJOR_AXIS":"6771.406","REF_FRAME":"TEME","RCS_SIZE":"LARGE","MEAN_MOTION_DDOT":"0.0000000000000","BSTAR":"-0.01518200000000","REV_AT_EPOCH":"130","TLE_LINE2":"2 52872  53.2172  12.6572 0001306  62.2970 167.1548 15.58060918  1304","EPHEMERIS_TYPE":"0","MEAN_MOTION":"15.58060918","ELEMENT_SET_NO":"999","MEAN_MOTION_DOT":"-0.01056830","NORAD_CAT_ID":"52872","DECAY_DATE":null,"OBJECT_NAME":"STARLINK-4213","TLE_LINE1":"1 52872U 22062AU  22247.83334491 -.01056830  00000-0 -15182-1 0  9991","OBJECT_TYPE":"PAYLOAD","CENTER_NAME":"EARTH","FILE":"3558394","GP_ID":"211754207","COUNTRY_CODE":"US","APOAPSIS":"394.156","OBJECT_ID":"2022-062AU","ECCENTRICITY":"0.00013060","EPOCH":"2022-09-04T20:00:01.000224","INCLINATION":"53.2172","PERIOD":"92.423","SITE":"AFETR","LAUNCH_DATE":"2022-06-17","ARG_OF_PERICENTER":"62.2970","TIME_SYSTEM":"UTC","MEAN_ANOMALY":"167.1548","RA_OF_ASC_NODE":"12.6572"},{"ARG_OF_PERICENTER":"58.3533","MEAN_ANOMALY":"174.1221","TIME_SYSTEM":"UTC","RA_OF_ASC_NODE":"12.6906","INCLINATION":"53.2172","ECCENTRICITY":"0.00013370","EPOCH":"2022-09-04T20:00:01.000224","SITE":"AFETR","PERIOD":"92.421","LAUNCH_DATE":"2022-06-17","DECAY_DATE":null,"NORAD_CAT_ID":"52873","OBJECT_TYPE":"PAYLOAD","TLE_LINE1":"1 52873U 22062AV  22247.83334491 -.01056966  00000-0 -15168-1 0  9996","CENTER_NAME":"EARTH","OBJECT_NAME":"STARLINK-4211","GP_ID":"211754901","FILE":"3558394","OBJECT_ID":"2022-062AV","APOAPSIS":"394.096","COUNTRY_CODE":"US","REF_FRAME":"TEME","SEMIMAJOR_AXIS":"6771.326","PERIAPSIS":"392.286","CLASSIFICATION_TYPE":"U","MEAN_ELEMENT_THEORY":"SGP4","RCS_SIZE":"LARGE","EPHEMERIS_TYPE":"0","TLE_LINE2":"2 52873  53.2172  12.6906 0001337  58.3533 174.1221 15.58088703  1309","REV_AT_EPOCH":"130","BSTAR":"-0.01516800000000","MEAN_MOTION_DDOT":"0.0000000000000","ELEMENT_SET_NO":"999","MEAN_MOTION_DOT":"-0.01056966","MEAN_MOTION":"15.58088703"},{"FILE":"3558394","GP_ID":"211754077","OBJECT_ID":"2022-062AW","COUNTRY_CODE":"US","APOAPSIS":"394.149","DECAY_DATE":null,"NORAD_CAT_ID":"52874","TLE_LINE1":"1 52874U 22062AW  22247.83334491 -.01056770  00000-0 -15177-1 0  9990","OBJECT_NAME":"STARLINK-4210","OBJECT_TYPE":"PAYLOAD","CENTER_NAME":"EARTH","EPHEMERIS_TYPE":"0","MEAN_MOTION_DDOT":"0.0000000000000","BSTAR":"-0.01517700000000","REV_AT_EPOCH":"130","TLE_LINE2":"2 52874  53.2172  12.6655 0001326  60.0090 170.1989 15.58067801  1300","MEAN_MOTION":"15.58067801","ELEMENT_SET_NO":"999","MEAN_MOTION_DOT":"-0.01056770","SEMIMAJOR_AXIS":"6771.387","REF_FRAME":"TEME","MEAN_ELEMENT_THEORY":"SGP4","PERIAPSIS":"392.354","CLASSIFICATION_TYPE":"U","RCS_SIZE":"LARGE","MEAN_ANOMALY":"170.1989","TIME_SYSTEM":"UTC","RA_OF_ASC_NODE":"12.6655","ARG_OF_PERICENTER":"60.0090","SITE":"AFETR","PERIOD":"92.422","LAUNCH_DATE":"2022-06-17","ECCENTRICITY":"0.00013260","EPOCH":"2022-09-04T20:00:01.000224","INCLINATION":"53.2172"},{"OBJECT_NAME":"STARLINK-4193","TLE_LINE1":"1 52875U 22062AX  22247.83334491 -.01057038  00000-0 -15165-1 0  9996","OBJECT_TYPE":"PAYLOAD","CENTER_NAME":"EARTH","NORAD_CAT_ID":"52875","DECAY_DATE":null,"APOAPSIS":"394.096","COUNTRY_CODE":"US","OBJECT_ID":"2022-062AX","GP_ID":"211754766","FILE":"3558394","RCS_SIZE":"LARGE","CLASSIFICATION_TYPE":"U","PERIAPSIS":"392.246","MEAN_ELEMENT_THEORY":"SGP4","REF_FRAME":"TEME","SEMIMAJOR_AXIS":"6771.306","MEAN_MOTION":"15.58095681","ELEMENT_SET_NO":"999","MEAN_MOTION_DOT":"-0.01057038","TLE_LINE2":"2 52875  53.2172  12.6989 0001366  55.7653 177.4658 15.58095681  1301","REV_AT_EPOCH":"130","MEAN_MOTION_DDOT":"0.0000000000000","BSTAR":"-0.01516500000000","EPHEMERIS_TYPE":"0","ARG_OF_PERICENTER":"55.7653","RA_OF_ASC_NODE":"12.6989","MEAN_ANOMALY":"177.4658","TIME_SYSTEM":"UTC","INCLINATION":"53.2172","EPOCH":"2022-09-04T20:00:01.000224","ECCENTRICITY":"0.00013660","LAUNCH_DATE":"2022-06-17","PERIOD":"92.421","SITE":"AFETR"},{"DECAY_DATE":null,"NORAD_CAT_ID":"52876","CENTER_NAME":"EARTH","TLE_LINE1":"1 52876U 22062AY  22247.83334491 -.01056894  00000-0 -15171-1 0  9993","OBJECT_TYPE":"PAYLOAD","OBJECT_NAME":"STARLINK-4200","FILE":"3558394","GP_ID":"211754622","OBJECT_ID":"2022-062AY","COUNTRY_CODE":"US","APOAPSIS":"394.100","SEMIMAJOR_AXIS":"6771.346","REF_FRAME":"TEME","MEAN_ELEMENT_THEORY":"SGP4","CLASSIFICATION_TYPE":"U","PERIAPSIS":"392.323","RCS_SIZE":"LARGE","EPHEMERIS_TYPE":"0","BSTAR":"-0.01517100000000","MEAN_MOTION_DDOT":"0.0000000000000","REV_AT_EPOCH":"130","TLE_LINE2":"2 52876  53.2172  12.6820 0001312  61.2294 170.4902 15.58081725  1309","MEAN_MOTION":"15.58081725","MEAN_MOTION_DOT":"-0.01056894","ELEMENT_SET_NO":"999","ARG_OF_PERICENTER":"61.2294","TIME_SYSTEM":"UTC","MEAN_ANOMALY":"170.4902","RA_OF_ASC_NODE":"12.6820","ECCENTRICITY":"0.00013120","EPOCH":"2022-09-04T20:00:01.000224","INCLINATION":"53.2172","SITE":"AFETR","PERIOD":"92.421","LAUNCH_DATE":"2022-06-17"},{"INCLINATION":"53.2172","ECCENTRICITY":"0.00013340","EPOCH":"2022-09-04T20:00:01.000224","LAUNCH_DATE":"2022-06-17","PERIOD":"92.420","SITE":"AFETR","ARG_OF_PERICENTER":"58.3817","RA_OF_ASC_NODE":"12.7640","TIME_SYSTEM":"UTC","MEAN_ANOMALY":"176.3591","RCS_SIZE":"LARGE","CLASSIFICATION_TYPE":"U","PERIAPSIS":"392.224","MEAN_ELEMENT_THEORY":"SGP4","REF_FRAME":"TEME","SEMIMAJOR_AXIS":"6771.262","MEAN_MOTION_DOT":"-0.01057004","MEAN_MOTION":"15.58110635","ELEMENT_SET_NO":"999","REV_AT_EPOCH":"130","TLE_LINE2":"2 52877  53.2172  12.7640 0001334  58.3817 176.3591 15.58110635  1305","MEAN_MOTION_DDOT":"0.0000000000000","BSTAR":"-0.01515600000000","EPHEMERIS_TYPE":"0","OBJECT_TYPE":"PAYLOAD","TLE_LINE1":"1 52877U 22062AZ  22247.83334491 -.01057004  00000-0 -15156-1 0  9991","CENTER_NAME":"EARTH","OBJECT_NAME":"STARLINK-4214","NORAD_CAT_ID":"52877","DECAY_DATE":null,"APOAPSIS":"394.031","COUNTRY_CODE":"US","OBJECT_ID":"2022-062AZ","GP_ID":"211755078","FILE":"3558394"},{"RA_OF_ASC_NODE":"12.7067","TIME_SYSTEM":"UTC","MEAN_ANOMALY":"177.4955","ARG_OF_PERICENTER":"56.4913","LAUNCH_DATE":"2022-06-17","SITE":"AFETR","PERIOD":"92.420","INCLINATION":"53.2172","ECCENTRICITY":"0.00013560","EPOCH":"2022-09-04T20:00:01.000224","OBJECT_ID":"2022-062BA","APOAPSIS":"394.069","COUNTRY_CODE":"US","GP_ID":"211754492","FILE":"3558394","CENTER_NAME":"EARTH","TLE_LINE1":"1 52878U 22062BA  22247.83334491 -.01057034  00000-0 -15161-1 0  9991","OBJECT_TYPE":"PAYLOAD","OBJECT_NAME":"STARLINK-4171","DECAY_DATE":null,"NORAD_CAT_ID":"52878","MEAN_MOTION_DOT":"-0.01057034","ELEMENT_SET_NO":"999","MEAN_MOTION":"15.58102586","EPHEMERIS_TYPE":"0","TLE_LINE2":"2 52878  53.2172  12.7067 0001356  56.4913 177.4955 15.58102586  1301","REV_AT_EPOCH":"130","BSTAR":"-0.01516100000000","MEAN_MOTION_DDOT":"0.0000000000000","RCS_SIZE":"LARGE","REF_FRAME":"TEME","SEMIMAJOR_AXIS":"6771.286","PERIAPSIS":"392.233","CLASSIFICATION_TYPE":"U","MEAN_ELEMENT_THEORY":"SGP4"},{"MEAN_ELEMENT_THEORY":"SGP4","PERIAPSIS":"392.018","CLASSIFICATION_TYPE":"U","SEMIMAJOR_AXIS":"6771.202","REF_FRAME":"TEME","RCS_SIZE":"LARGE","BSTAR":"-0.01514600000000","MEAN_MOTION_DDOT":"0.0000000000000","REV_AT_EPOCH":"130","TLE_LINE2":"2 52879  53.2172  12.7885 0001549  43.5262 193.4809 15.58131461  1308","EPHEMERIS_TYPE":"0","MEAN_MOTION":"15.58131461","ELEMENT_SET_NO":"999","MEAN_MOTION_DOT":"-0.01057192","NORAD_CAT_ID":"52879","DECAY_DATE":null,"TLE_LINE1":"1 52879U 22062BB  22247.83334491 -.01057192  00000-0 -15146-1 0  9990","OBJECT_NAME":"STARLINK-4139","OBJECT_TYPE":"PAYLOAD","CENTER_NAME":"EARTH","FILE":"3558394","GP_ID":"211754352","COUNTRY_CODE":"US","APOAPSIS":"394.116","OBJECT_ID":"2022-062BB","EPOCH":"2022-09-04T20:00:01.000224","ECCENTRICITY":"0.00015490","INCLINATION":"53.2172","PERIOD":"92.418","SITE":"AFETR","LAUNCH_DATE":"2022-06-17","ARG_OF_PERICENTER":"43.5262","TIME_SYSTEM":"UTC","MEAN_ANOMALY":"193.4809","RA_OF_ASC_NODE":"12.7885"},{"INCLINATION":"53.2172","ECCENTRICITY":"0.00014530","EPOCH":"2022-09-04T20:00:01.000224","LAUNCH_DATE":"2022-06-17","PERIOD":"92.419","SITE":"AFETR","ARG_OF_PERICENTER":"49.1677","RA_OF_ASC_NODE":"12.7799","MEAN_ANOMALY":"187.0842","TIME_SYSTEM":"UTC","RCS_SIZE":"LARGE","CLASSIFICATION_TYPE":"U","PERIAPSIS":"392.104","MEAN_ELEMENT_THEORY":"SGP4","REF_FRAME":"TEME","SEMIMAJOR_AXIS":"6771.223","ELEMENT_SET_NO":"999","MEAN_MOTION_DOT":"-0.01056773","MEAN_MOTION":"15.58124260","TLE_LINE2":"2 52880  53.2172  12.7799 0001453  49.1677 187.0842 15.58124260  1305","REV_AT_EPOCH":"130","BSTAR":"-0.01514400000000","MEAN_MOTION_DDOT":"0.0000000000000","EPHEMERIS_TYPE":"0","CENTER_NAME":"EARTH","TLE_LINE1":"1 52880U 22062BC  22247.83334491 -.01056773  00000-0 -15144-1 0  9994","OBJECT_TYPE":"PAYLOAD","OBJECT_NAME":"STARLINK-4186","NORAD_CAT_ID":"52880","DECAY_DATE":null,"APOAPSIS":"394.072","COUNTRY_CODE":"US","OBJECT_ID":"2022-062BC","GP_ID":"211754208","FILE":"3558394"},{"RA_OF_ASC_NODE":"12.7722","MEAN_ANOMALY":"184.6569","TIME_SYSTEM":"UTC","ARG_OF_PERICENTER":"50.8394","LAUNCH_DATE":"2022-06-17","SITE":"AFETR","PERIOD":"92.419","ECCENTRICITY":"0.00014290","EPOCH":"2022-09-04T20:00:01.000224","INCLINATION":"53.2172","OBJECT_ID":"2022-062BD","COUNTRY_CODE":"US","APOAPSIS":"394.075","FILE":"3558394","GP_ID":"211754902","CENTER_NAME":"EARTH","TLE_LINE1":"1 52881U 22062BD  22247.83334491 -.01057029  00000-0 -15152-1 0  9999","OBJECT_TYPE":"PAYLOAD","OBJECT_NAME":"STARLINK-4192","DECAY_DATE":null,"NORAD_CAT_ID":"52881","ELEMENT_SET_NO":"999","MEAN_MOTION_DOT":"-0.01057029","MEAN_MOTION":"15.58117534","EPHEMERIS_TYPE":"0","BSTAR":"-0.01515200000000","MEAN_MOTION_DDOT":"0.0000000000000","REV_AT_EPOCH":"130","TLE_LINE2":"2 52881  53.2172  12.7722 0001429  50.8394 184.6569 15.58117534  1305","RCS_SIZE":"LARGE","SEMIMAJOR_AXIS":"6771.242","REF_FRAME":"TEME","MEAN_ELEMENT_THEORY":"SGP4","PERIAPSIS":"392.140","CLASSIFICATION_TYPE":"U"}];
